O3B FM5                 
1 39188U 13031A   23311.99881331 -.00000020  00000+0  00000+0 0  9990
2 39188   0.0341   3.4516 0003004 221.4090 135.1213  5.00115770189496
O3B FM4                 
1 39189U 13031B   23311.45475950 -.00000022  00000+0  00000+0 0  9990
2 39189   0.0612  11.2287 0002976 214.3926 134.3602  5.00116178189380
O3B FM2                 
1 39190U 13031C   23311.54677760 -.00000021  00000+0  00000+0 0  9994
2 39190   0.0659  12.8606 0002806 211.5524 135.5704  5.00115379189445
O3B PFM                 
1 39191U 13031D   23310.37320119 -.00000024  00000+0  00000+0 0  9991
2 39191   0.0431   4.9310 0002586 220.4001 134.6531  5.00116045188956
O3B FM3                 
1 40079U 14038A   23310.62742426 -.00000024  00000+0  00000+0 0  9993
2 40079   0.0535  10.4415 0000801 279.3118  70.2435  5.00116724165335
O3B FM7                 
1 40080U 14038B   23311.37367023 -.00000022  00000+0  00000+0 0  9992
2 40080   0.0558  14.3906 0004304 199.7913 145.7961  5.00115969170215
O3B FM6                 
1 40081U 14038C   23312.39984023 -.00000019  00000+0  00000+0 0  9997
2 40081   0.0544   9.7406 0002644 216.4051 133.8388  5.00115238170545
O3B FM8                 
1 40082U 14038D   23311.45391675 -.00000022  00000+0  00000+0 0  9993
2 40082   0.0548  10.8236 0002676 219.4372 129.7214  5.00115321170273
O3B FM10                
1 40348U 14083A   23310.68083964 -.00000023  00000+0  00000+0 0  9992
2 40348   0.0480   2.6703 0002643 222.9344 134.3791  5.00115408162193
O3B FM11                
1 40349U 14083B   23311.29379265 -.00000022  00000+0  00000+0 0  9992
2 40349   0.0455   7.6731 0003054 206.6691 145.6438  5.00115590162244
O3B FM12                
1 40350U 14083C   23310.72140749 -.00000023  00000+0  00000+0 0  9995
2 40350   0.0465   7.4331 0002609 214.3221 138.2304  5.00115528162220
O3B FM9                 
1 40351U 14083D   23310.54802463 -.00000024  00000+0  00000+0 0  9995
2 40351   0.0447   8.8122 0002709 215.5831 135.5884  5.00115079162364
DIAMOND RED             
1 42783U 17036U   23311.55507966  .00060523  00000+0  10057-2 0  9994
2 42783  97.1327 343.9720 0003818 319.3352  40.7616 15.51876716354934
DIAMOND GREEN           
1 42785U 17036W   23312.04777872  .00075821  00000+0  11361-2 0  9992
2 42785  97.1304 344.9882 0003421 306.7259  53.3681 15.54689759355033
DIAMOND BLUE            
1 42786U 17036X   23312.08763039  .00073811  00000+0  11744-2 0  9999
2 42786  97.1340 344.8034 0003500 301.8708  58.2204 15.53036978355027
LEO VANTAGE 1           
1 43113U 18004C   23311.33868319  .00008032  00000+0  61096-3 0  9993
2 43113  99.2745  92.4092 0386478 101.6823 262.8002 14.58142925298126
O3B FM15                
1 43231U 18024A   23311.21382012 -.00000022  00000+0  00000+0 0  9990
2 43231   0.0495 359.0514 0002670 224.4051 136.5281  5.00114646103538
O3B FM16                
1 43232U 18024B   23311.46667487 -.00000022  00000+0  00000+0 0  9990
2 43232   0.0508 354.4704 0002713 228.7305 136.7836  5.00116314103522
O3B FM14                
1 43233U 18024C   23309.90764474 -.00000025  00000+0  00000+0 0  9994
2 43233   0.0521 353.3205 0002895 227.6624 139.0005  5.00115818103213
O3B FM13                
1 43234U 18024D   23311.36057829 -.00000022  00000+0  00000+0 0  9994
2 43234   0.0468  18.3244 0002256 193.6386 148.0290  5.00115725103395
O3B FM20                
1 44112U 19020A   23309.93432601 -.00000025  00000+0  00000+0 0  9995
2 44112   0.0487   2.9152 0002721 211.4508 145.6216  5.00115796 83836
O3B FM19                
1 44113U 19020B   23311.36056618 -.00000022  00000+0  00000+0 0  9993
2 44113   0.0327   8.4506 0004183 212.9893 138.5341  5.00115763 83767
O3B FM17                
1 44114U 19020C   23312.24024430 -.00000020  00000+0  00000+0 0  9997
2 44114   0.0676 358.1140 0002627 225.5176 136.3540  5.00116105 84027
O3B FM18                
1 44115U 19020D   23311.38711811 -.00000022  00000+0  00000+0 0  9990
2 44115   0.0481   2.9407 0002727 223.8141 133.2282  5.00116092 83984
SALSAT                  
1 46495U 20068K   23311.59844493  .00009073  00000+0  56815-3 0  9996
2 46495  97.7868 261.3933 0014955   1.2212 358.9050 15.09525642170696
O3B MPOWER F1           
1 54755U 22174A   23312.42065590 -.00000019  00000+0  00000+0 0  9993
2 54755   0.0529  19.0810 0005446 223.3490  40.2972  5.00118440 17730
O3B MPOWER F2           
1 54756U 22174B   23312.37534156 -.00000019  00000+0  00000+0 0  9997
2 54756   0.0552  18.5686 0008161 250.8915  90.4528  5.00113593 17813
O3B MPOWER F4           
1 56367U 23059A   23310.29739157 -.00000024  00000+0  00000+0 0  9993
2 56367   0.0376   8.9755 0006863 228.3816 122.5820  5.00114994 10871
O3B MPOWER F3           
1 56368U 23059B   23311.39697057 -.00000022  00000+0  00000+0 0  9996
2 56368   0.0362   6.3481 0003708 255.9689  97.6468  5.00114754  7065
